     2.100          NAVIGATION                              RINEX VERSION / TYPE
fic2rin                                 07/26/2010 00:08:19 PGM / RUN BY / DATE
                                                            END OF HEADER
21 10  7 25 10  0  0.0 -.763572752476D-04 -.261479726760D-11  .000000000000D+00
     .240000000000D+02  .925000000000D+01  .562201989398D-08 -.105560490678D+01
     .739470124245D-06  .167591110803D-01  .408291816711D-05  .515364168549D+04
     .360000000000D+05  .389292836189D-06 -.174556077617D+01  .119209289551D-06
     .931933554499D+00  .278812500000D+03 -.245806576495D+01 -.856321383509D-08
     .275725770799D-09  .100000000000D+01  .159400000000D+04  .000000000000D+00
     .240000000000D+01  .000000000000D+00 -.121071934700D-07  .240000000000D+02
     .288060000000D+05  .400000000000D+01
23 10  7 25 10  0  0.0  .361490994692D-03 -.170530256582D-11  .000000000000D+00
     .310000000000D+02  .124968750000D+03  .424231956678D-08  .146331386444D+01
     .672601163387D-05  .691949401516D-02  .921450555325D-05  .515367190361D+04
     .360000000000D+05  .968575477600D-07  .345295545917D+00  .316649675369D-07
     .967777626566D+00  .201500000000D+03  .305281158005D+01 -.792318717541D-08
    -.460733477113D-10  .100000000000D+01  .159400000000D+04  .000000000000D+00
     .240000000000D+01  .000000000000D+00 -.200234353542D-07  .310000000000D+02
     .288060000000D+05  .400000000000D+01
25 10  7 25 10  0  0.0 -.201957300305D-04 -.432009983342D-11  .000000000000D+00
     .760000000000D+02 -.127343750000D+03  .425053419467D-08 -.302054103064D+01
    -.656582415104D-05  .946005573496D-03  .668875873089D-05  .515600692558D+04
     .360000000000D+05  .111758708954D-07  .241593459762D+01 -.465661287308D-07
     .960368537513D+00  .252031250000D+03  .210910722138D+01 -.796890336538D-08
    -.354657630057D-09  .100000000000D+01  .159400000000D+04  .100000000000D+01
     .240000000000D+01  .630000000000D+02  .465661287308D-08  .760000000000D+02
     .288060000000D+05  .400000000000D+01
26 10  7 25 10  0  0.0 -.871089287102D-04 -.636646291241D-11  .000000000000D+00
     .620000000000D+02  .104125000000D+03  .385230332104D-08  .104515188019D+01
     .561401247978D-05  .193210801808D-01  .905804336071D-05  .515238770866D+04
     .360000000000D+05 -.331550836563D-06  .403742738054D+00  .121071934700D-06
     .990447098749D+00  .225718750000D+03  .110609848249D+01 -.796818904991D-08
    -.239295681911D-10  .100000000000D+01  .159400000000D+04  .000000000000D+00
     .240000000000D+01  .000000000000D+00 -.605359673500D-08  .620000000000D+02
     .288060000000D+05  .400000000000D+01
27 10  7 25 10  0  0.0  .173427630216D-03  .363797880709D-11  .000000000000D+00
     .310000000000D+02  .393750000000D+02  .426946355458D-08  .225914440095D+01
     .188313424587D-05  .215342013398D-01 -.223517417908D-07  .515360538101D+04
     .360000000000D+05  .288709998131D-06  .133181629689D+01 -.912696123123D-07
     .978627678880D+00  .378187500000D+03 -.139379855449D+01 -.792711591048D-08
    -.192508018732D-09  .100000000000D+01  .159400000000D+04  .000000000000D+00
     .240000000000D+01  .000000000000D+00 -.419095158577D-08  .310000000000D+02
     .288060000000D+05  .400000000000D+01
28 10  7 25 10  0  0.0 -.949483364820D-05  .125055521494D-11  .000000000000D+00
     .108000000000D+03 -.131125000000D+03  .388230457071D-08 -.296547492307D+01
    -.671856105328D-05  .160529337591D-01  .680051743984D-05  .515368248749D+04
     .360000000000D+05  .113621354103D-06  .246731409020D+01 -.104308128357D-06
     .971153479732D+00  .252250000000D+03 -.195127706403D+01 -.753888545341D-08
    -.195365280605D-09  .100000000000D+01  .159400000000D+04  .000000000000D+00
     .240000000000D+01  .000000000000D+00 -.107102096081D-07  .108000000000D+03
     .288060000000D+05  .400000000000D+01
29 10  7 25 10  0  0.0  .136985443532D-03  .261479726760D-11  .000000000000D+00
     .700000000000D+02 -.931250000000D+01  .419088885306D-08 -.908230021597D+00
    -.467523932457D-06  .289023306686D-02  .108629465103D-04  .515370621872D+04
     .360000000000D+05 -.633299350739D-07 -.277265858246D+01  .117346644402D-06
     .961030617663D+00  .171656250000D+03 -.126446527184D+01 -.776782356103D-08
     .663241912402D-09  .100000000000D+01  .159400000000D+04  .000000000000D+00
     .240000000000D+01  .000000000000D+00 -.884756445885D-08  .700000000000D+02
     .288060000000D+05  .400000000000D+01
30 10  7 25 10  0  0.0  .263571273535D-03  .329691829393D-11  .000000000000D+00
     .104000000000D+03 -.136875000000D+03  .424017662038D-08 -.255134332055D+01
    -.693649053574D-05  .124898873037D-01  .623427331448D-05  .515371710587D+04
     .360000000000D+05  .121071934700D-06  .238768595526D+01  .186264514923D-08
     .956984205273D+00  .254906250000D+03  .149601186534D+01 -.783068332225D-08
    -.288583449230D-09  .100000000000D+01  .159400000000D+04  .000000000000D+00
     .340000000000D+01  .000000000000D+00 -.791624188423D-08  .104000000000D+03
     .288060000000D+05  .400000000000D+01
31 10  7 25 10  0  0.0 -.220872461796D-04  .272848410532D-11  .000000000000D+00
     .370000000000D+02  .253437500000D+02  .444304221340D-08 -.172168213051D+00
     .136904418468D-05  .732872367371D-02  .858679413795D-06  .515372803116D+04
     .360000000000D+05 -.111758708954D-06  .138761069482D+01 -.104308128357D-06
     .977132384960D+00  .374312500000D+03 -.105079153471D+01 -.844392315186D-08
    -.367872466222D-10  .100000000000D+01  .159400000000D+04  .000000000000D+00
     .240000000000D+01  .000000000000D+00 -.130385160446D-07  .370000000000D+02
     .288060000000D+05  .400000000000D+01
32 10  7 25 10  0  0.0 -.458792783320D-04 -.875388650456D-11  .000000000000D+00
     .480000000000D+02 -.750000000000D+01  .477162732886D-08  .612702021247D+00
    -.478699803352D-06  .126412477111D-01  .992976129055D-05  .515367823601D+04
     .360000000000D+05 -.353902578354D-07 -.624283531138D+00 -.245869159698D-06
     .958481731606D+00  .191843750000D+03 -.959644453043D+00 -.813462455405D-08
    -.506092509356D-09  .100000000000D+01  .159400000000D+04  .000000000000D+00
     .240000000000D+01  .000000000000D+00 -.325962901115D-08  .480000000000D+02
     .288060000000D+05  .400000000000D+01
 9 10  7 25  9 59 44.0  .203601084650D-04  .227373675443D-11  .000000000000D+00
     .270000000000D+02  .239062500000D+02  .449018703431D-08 -.882346288716D+00
     .149756669998D-05  .171809287276D-01  .139884650707D-05  .515370335388D+04
     .359840000000D+05 -.214204192162D-06  .135697681135D+01  .132247805595D-06
     .980968732554D+00  .363281250000D+03  .153788228215D+01 -.854499879064D-08
    -.535736601294D-11  .100000000000D+01  .159400000000D+04  .000000000000D+00
     .240000000000D+01  .000000000000D+00 -.558793544769D-08  .270000000000D+02
     .289860000000D+05  .400000000000D+01
11 10  7 25  9 59 44.0 -.779516994953D-04 -.250111042988D-11  .000000000000D+00
     .170000000000D+02  .261562500000D+02  .666206321596D-08 -.261319567249D+00
     .152178108692D-05  .108474332374D-01  .503845512867D-05  .515374640846D+04
     .359840000000D+05  .242143869400D-07 -.199544075999D+01  .132247805595D-06
     .887960824938D+00  .244875000000D+03  .820316322428D+00 -.920288333703D-08
     .456090426568D-09  .100000000000D+01  .159400000000D+04  .000000000000D+00
     .240000000000D+01  .000000000000D+00 -.116415321827D-07  .170000000000D+02
     .293160000000D+05  .400000000000D+01
 6 10  7 25  9 59 44.0  .559757929295D-03 -.144382283906D-10  .000000000000D+00
     .100000000000D+01 -.231875000000D+02  .471198198725D-08 -.269509017913D+01
    -.110268592834D-05  .627392169554D-02  .107698142529D-04  .515366375542D+04
     .359840000000D+05  .484287738800D-07 -.285593175188D+01  .987201929092D-07
     .935109646202D+00  .153468750000D+03 -.100529555633D+01 -.792461580634D-08
     .583952895411D-09  .100000000000D+01  .159400000000D+04  .000000000000D+00
     .240000000000D+01  .000000000000D+00 -.512227416039D-08  .100000000000D+01
     .336960000000D+05  .400000000000D+01
30 10  7 25  9 59 44.0  .263572204858D-03  .329691829393D-11  .000000000000D+00
     .190000000000D+02 -.136875000000D+03  .424053377811D-08 -.255367765650D+01
    -.693649053574D-05  .124898966169D-01  .623427331448D-05  .515371711922D+04
     .359840000000D+05  .121071934700D-06  .238768606937D+01  .186264514923D-08
     .956984222828D+00  .254906250000D+03  .149601243003D+01 -.783068332225D-08
    -.288583449230D-09  .100000000000D+01  .159400000000D+04  .000000000000D+00
     .240000000000D+01  .000000000000D+00 -.791624188423D-08  .190000000000D+02
     .342660000000D+05  .400000000000D+01
 6 10  7 25 11 59 44.0  .559653621167D-03 -.144382283906D-10  .000000000000D+00
     .200000000000D+01 -.180937500000D+02  .472483966568D-08 -.164496430433D+01
    -.825151801109D-06  .627457781229D-02  .113807618618D-04  .515366243935D+04
     .431840000000D+05 -.912696123123D-07 -.285598927967D+01  .126659870148D-06
     .935113173297D+00  .148937500000D+03 -.100523222222D+01 -.806783605776D-08
     .577166898461D-09  .100000000000D+01  .159400000000D+04  .000000000000D+00
     .240000000000D+01  .000000000000D+00 -.512227416039D-08  .200000000000D+01
     .360060000000D+05  .400000000000D+01
11 10  7 25 11 59 44.0 -.779703259468D-04 -.250111042988D-11  .000000000000D+00
     .180000000000D+02  .306250000000D+02  .655348726476D-08  .788803589453D+00
     .159628689289D-05  .108482723590D-01  .519864261150D-05  .515374812317D+04
     .431840000000D+05 -.128522515297D-06 -.199550611732D+01  .763684511185D-07
     .887963914621D+00  .240468750000D+03  .820343782863D+00 -.913609484074D-08
     .338942689752D-09  .100000000000D+01  .159400000000D+04  .000000000000D+00
     .240000000000D+01  .000000000000D+00 -.116415321827D-07  .180000000000D+02
     .360060000000D+05  .400000000000D+01
